ONEWEB-0578             
1 56067U 23043X   25286.56026798 -.00000020  00000+0 -79996-4 0  9999
2 56067  87.9166 293.1849 0002058  85.6831 274.4538 13.21855472125655
ONEWEB-0579             
1 56068U 23043Y   25286.55064741 -.00000007  00000+0 -49084-4 0  9999
2 56068  87.9168 293.1739 0001746  98.0467 262.0865 13.21892790125663
ONEWEB-0581             
1 56069U 23043Z   25286.54013418 -.00000030  00000+0 -11161-3 0  9994
2 56069  87.8968 277.9241 0001496  79.6698 280.4602 13.16593734126509
ONEWEB-0609             
1 56070U 23043AA  25286.52984257  .00000007  00000+0 -15937-4 0  9991
2 56070  87.8981 308.4432 0001916  95.3389 264.7961 13.15548495124006
ONEWEB-0613             
1 56071U 23043AB  25286.60115872  .00000127  00000+0  30273-3 0  9991
2 56071  87.8978 308.4426 0001824 102.4831 257.6504 13.15550772124012
ONEWEB-0630             
1 56072U 23043AC  25286.52033869  .00000117  00000+0  27630-3 0  9990
2 56072  87.8977 308.4310 0001826 103.7329 256.4004 13.15547316123990
ONEWEB-0632             
1 56073U 23043AD  25286.51559150  .00000133  00000+0  31963-3 0  9998
2 56073  87.8971 308.4514 0001634  92.5095 267.6222 13.15548014123995
ONEWEB-0633             
1 56074U 23043AE  25286.50924528  .00000176  00000+0  43277-3 0  9991
2 56074  87.8969 308.4162 0002028 105.9977 254.1377 13.15547461123973
